#dP2024 10 29  0  0  0.00000000      96 __u+U IGS20 FIT  IAC
## 2338 172800.00000000   900.00000000 60612 0.0000000000000
+   53   G02G03G04G05G06G07G08G09G10G11G12G13G14G15G16G17G18
+        G19G20G21G22G23G24G25G26G27G28G29G30G31G32R01R02R03
+        R04R05R07R08R09R11R12R14R15R16R17R18R19R20R21R22R24
+        R25R26  0  0  0  0  0  0  0  0  0  0  0  0  0  0  0
+          0  0  0  0  0  0  0  0  0  0  0  0  0  0  0  0  0
++         6  5  5  5  5  7  4  5  5  6  6  5  6  5  7  5  5
++         5  6  6  4  6  5  6  5  5  6  6  4  7  4  5  6  5
++         7  6  6  6  5  6  7  7  5  7  6  5  6  8  5  7  6
++         6  6  0  0  0  0  0  0  0  0  0  0  0  0  0  0  0
++         0  0  0  0  0  0  0  0  0  0  0  0  0  0  0  0  0
%c M  cc GPS ccc cccc cccc cccc cccc ccccc ccccc ccccc ccccc
%c cc cc ccc ccc cccc cccc cccc cccc ccccc ccccc ccccc ccccc
%f  0.0000000  0.000000000  0.00000000000  0.000000000000000
%f  0.0000000  0.000000000  0.00000000000  0.000000000000000
%i    0    0    0    0      0      0      0      0         0
%i    0    0    0    0      0      0      0      0         0
/* INFORMATION & ANALYSIS CENTER (IAC)      ULTRA-RAPID DATA
/* S/V CLOCKS ARE ALIGNED TO GNSS TIME                      
/* G:C1WC2W R:C1PC2P E:C1XC5X C:C2IC6I J:C1CC2S             
/* PCV:IGS20_2317 OL/AL:FES2004  NONE     YN ORB:CoN CLK:CoN
*  2024 10 29 12  0  0.00000000
PG02 -13252.773914  21855.799900  -6039.840436   -326.519618
PG03  -4271.793735  14085.959743 -22272.778471    584.714482
PG04  -1789.652643  24386.126355 -10172.251473    470.218069
PG05  19967.524212  -6681.723487  16049.497523   -191.325036
PG06  17361.050565   1622.130686 -19999.801811    -74.077792
PG07   1580.244799  18170.362587  19682.880285    -23.754710
PG08  -8994.164406  16336.144098  18623.907343    398.587067
PG09   6569.288908  25678.232353  -1094.369016    419.856053
PG10 -23839.666340 -10706.902411   5890.980220   -175.874627
PG11  22160.587153 -10540.142442 -10041.666062   -747.260897
PG12   9458.355870 -12659.204387 -21624.663112   -548.463619
PG13  13599.230276  -7983.795366  21100.028744    683.687995
PG14  21456.257812  13148.439740   8897.784461    528.176715
PG15   6509.011208 -17959.272557  17869.289978    221.421477
PG16 -23351.922208    776.185311  12697.352086   -142.280564
PG17  13109.490814  18305.627160 -13518.175560    578.540086
PG18  -2260.608643 -16881.803463  20346.107524   -659.376622
PG19  15299.282553   9464.171278 -19825.118935    556.375480
PG20  25753.599819  -1885.013589   5949.123800    369.221775
PG21 -16623.590969  19937.014647   -213.092647     98.698757
PG22  24329.811226  10177.359184   1390.582585    -75.139936
PG23 -14062.048583 -15105.152714  16881.534424    351.950690
PG24  13530.581394 -22124.900988  -5067.559359   -482.940248
PG25  -5602.359287 -16522.710184 -20444.070431    499.325284
PG26 -26427.825276  -4074.340080   1139.511639     43.542943
PG27 -14341.931747   4770.526118  21532.334737    -34.725195
PG28 -16407.242652  -3620.014637 -20586.919621   -461.876510
PG29  -3216.665725 -26211.519325  -2162.405136   -567.802338
PG30  11613.935459  10773.794702  21472.398518   -292.792523
PG31 -21770.321520   6646.008209 -14228.127169   -222.649439
PG32 -15114.767226 -15755.130357 -15049.446877   -580.838927
PR01  11829.830730  -1994.671078  22506.046051    102.644921
PR02     -6.080267 -16185.989256  19780.505890    -25.417167
PR03 -12088.986142 -21771.315186   5727.775454    110.336165
PR04 -16924.391652 -15571.824705 -11036.109576    261.494326
PR05 -12978.531500  -1045.041585 -21935.655900    139.884416
PR07  12323.926355  21688.226321  -5148.294346     93.912313
PR08  17127.766919  15117.603531  11356.537620     -6.359844
PR09 -11904.160063  11265.459456  19533.844016    217.469289
PR11  20854.511612   4529.933012  13995.865773      8.117581
PR12  24515.127012  -4827.517747  -5079.588016     46.607056
PR14  -6611.788305 -10231.484590 -22398.111466     27.135790
PR15 -21891.803107  -3910.311638 -12471.804841     74.588342
PR16 -24534.916527   4817.395711   4964.938073     30.333888
PR17    718.096894 -19395.324756  16539.009072    135.076682
PR18  -8856.057457  -5866.164667  23214.130973    169.247303
PR19 -14296.948181   8658.384951  19280.438936   -296.591250
PR20 -12167.710633  22389.532917    712.394915   -121.156541
PR21  -1585.348611  19933.783671 -15851.204496   -146.828570
PR22   9721.633333   4989.498953 -23017.643723      6.505593
PR24  10854.228317 -23068.883249   -130.266207    -77.953484
PR25  -1029.160750  19280.958663 -16673.830272    -86.170244
PR26  17144.321161  16194.525748   9754.822651   -506.203127
*  2024 10 29 12 15  0.00000000
PG02 -13827.536197  22148.728677  -3217.655432   -326.512012
PG03  -6688.185585  13471.084203 -22046.462537    584.724554
PG04  -2325.135025  23171.045116 -12620.864175    470.224135
PG05  21647.437824  -6197.912993  13958.127279   -191.326044
PG06  15751.775135   3342.371170 -21075.861474    -74.103286
PG07     29.904448  19580.005995  18266.744509    -23.752393
PG08  -9848.552970  14257.771676  19888.684133    398.596979
PG09   6234.029226  25494.345890  -3931.932017    419.871094
PG10 -23034.432333 -10657.778305   8618.850350   -175.887186
PG11  21369.905957  -9491.910095 -12497.945488   -747.262927
PG12  11707.349194 -11888.056245 -20937.885748   -548.465931
PG13  14008.626704  -5522.600484  21628.738834    683.689621
PG14  20281.328087  13093.732075  11377.875098    528.184194
PG15   7623.644109 -16017.829303  19200.810337    221.425319
PG16 -24569.397089    163.276942  10297.845656   -142.271749
PG17  13227.223348  19795.005746 -11155.339250    578.527951
PG18   -602.248385 -18410.635170  19076.312019   -659.377414
PG19  15595.938257  11593.036860 -18441.162292    556.379608
PG20  26252.196325  -1582.701409   3157.760552    369.221527
PG21 -16824.097731  19645.895883   2703.133977     98.698215
PG22  23975.088487  10348.012911   4239.975464    -75.142712
PG23 -12073.036942 -14787.416513  18597.745599    351.957950
PG24  14042.165886 -22205.625667  -2284.522158   -482.938791
PG25  -3328.923502 -16089.453482 -21260.190583    499.325080
PG26 -26370.835481  -4379.344513  -1632.695953     43.534266
PG27 -15086.352690   2359.110934  21461.932734    -34.725237
PG28 -14860.441897  -5450.647161 -21344.513619   -461.887643
PG29  -2898.045762 -25864.154951  -5002.334955   -567.799918
PG30   9925.293234  12519.072207  21347.634832   -292.785634
PG31 -20694.424695   5327.403636 -16244.731363   -222.648882
PG32 -15413.081247 -17361.358510 -12870.425022   -580.834577
PR01  13568.267884    100.978373  21595.536578    102.645596
PR02   1426.721662 -14107.961142  21261.311783    -25.417554
PR03 -11681.580429 -20965.562142   8780.232985    110.336663
PR04 -17761.933849 -16425.611720  -8099.437509    261.496162
PR05 -14594.773238  -3124.019459 -20689.726604    139.885000
PR07  11945.324575  20931.613427  -8233.372732     93.913872
PR08  17977.473887  15999.270337   8445.412795     -6.359694
PR09 -14161.460147  11678.367527  17689.997258    217.471605
PR11  18982.936202   4671.798592  16405.320882      8.116719
PR12  24928.769315  -5014.334215  -1910.263079     46.607014
PR14  -3841.691019 -10601.238114 -22869.021112     27.135766
PR15 -20192.524006  -4026.576071 -15035.264296     74.588212
PR16 -24926.948263   5022.418128   1781.586343     30.334492
PR17   1339.100100 -21188.156180  14117.738941    135.079867
PR18  -7725.994364  -8468.953382  22813.595477    169.249168
PR19 -13117.690288   6472.020732  20907.508763   -296.592090
PR20 -11849.132649  22226.403267   3942.890342   -121.155118
PR21  -2170.384639  21646.633799 -13340.398111   -146.831090
PR22   8519.400493   7556.433729 -22793.270122      6.495118
PR24  10632.946323 -22927.489832  -3336.044946    -77.955122
PR25  -1752.217611  21054.578868 -14303.396753    -86.165468
PR26  17885.438347  16907.161242   6748.122250   -506.168792
EOF
